[{"OBJECT_NAME":"FLORIPASAT-1","OBJECT_ID":"2019-093G","EPOCH":"2026-03-09T23:35:55.317696","MEAN_MOTION":15.02721611,"ECCENTRICITY":0.00131238,"INCLINATION":97.7908,"RA_OF_ASC_NODE":162.596,"ARG_OF_PERICENTER":52.6692,"MEAN_ANOMALY":307.5727,"EPHEMERIS_TYPE":0,"CLASSIFICATION_TYPE":"U","NORAD_CAT_ID":44885,"ELEMENT_SET_NO":999,"REV_AT_EPOCH":33774,"BSTAR":0.00066057159,"MEAN_MOTION_DOT":8.782e-5,"MEAN_MOTION_DDOT":0},{"OBJECT_NAME":"STARLINK-4374","OBJECT_ID":"2022-105E","EPOCH":"2026-03-09T15:18:04.365792","MEAN_MOTION":15.01282479,"ECCENTRICITY":5.04e-5,"INCLINATION":97.6019,"RA_OF_ASC_NODE":310.1527,"ARG_OF_PERICENTER":99.6561,"MEAN_ANOMALY":260.4721,"EPHEMERIS_TYPE":0,"CLASSIFICATION_TYPE":"U","NORAD_CAT_ID":53652,"ELEMENT_SET_NO":999,"REV_AT_EPOCH":19322,"BSTAR":0.0002926,"MEAN_MOTION_DOT":3.704e-5,"MEAN_MOTION_DDOT":0}]
